[{"OBJECT_NAME":"OBJECT D","OBJECT_ID":"2022-023D","EPOCH":"2026-03-09T23:24:15.634080","MEAN_MOTION":15.18234448,"ECCENTRICITY":0.01133038,"INCLINATION":63.4606,"RA_OF_ASC_NODE":248.8448,"ARG_OF_PERICENTER":353.4959,"MEAN_ANOMALY":6.4675,"EPHEMERIS_TYPE":0,"CLASSIFICATION_TYPE":"U","NORAD_CAT_ID":51949,"ELEMENT_SET_NO":999,"REV_AT_EPOCH":22265,"BSTAR":0.0002367106,"MEAN_MOTION_DOT":5.513e-5,"MEAN_MOTION_DDOT":0},{"OBJECT_NAME":"STARLINK-4447","OBJECT_ID":"2022-099H","EPOCH":"2026-03-09T22:02:27.593088","MEAN_MOTION":15.01257422,"ECCENTRICITY":9.916e-5,"INCLINATION":97.6015,"RA_OF_ASC_NODE":190.4351,"ARG_OF_PERICENTER":93.8518,"MEAN_ANOMALY":266.282,"EPHEMERIS_TYPE":0,"CLASSIFICATION_TYPE":"U","NORAD_CAT_ID":53472,"ELEMENT_SET_NO":999,"REV_AT_EPOCH":19601,"BSTAR":-1.3259562e-5,"MEAN_MOTION_DOT":-2.28e-6,"MEAN_MOTION_DDOT":0}]
